{
  "type": "FeatureCollection",
  "features": [
    {
      "type": "Feature",
      "properties": {
        "norad_id": 35284,
        "name": "COSMOS 2251 DEB",
        "group": "cosmos-2251-debris",
        "lat": 50.10632292540833,
        "lon": 37.85455466805777,
        "alt_km": 771.3327514059665,
        "timestamp": "2025-12-27T03:58:44.542709+00:00",
        "meta_object_name": "COSMOS 2251 DEB",
        "meta_object_id": "1993-036AJN",
        "meta_epoch": "2025-12-26T15:50:56.704128",
        "meta_mean_motion": 14.38332344,
        "meta_eccentricity": 0.0017235,
        "meta_inclination": 74.0481,
        "meta_ra_of_asc_node": 238.7931,
        "meta_arg_of_pericenter": 313.4165,
        "meta_mean_anomaly": 77.5805,
        "meta_ephemeris_type": 0,
        "meta_classification_type": "U",
        "meta_norad_cat_id": 35284,
        "meta_element_set_no": 999,
        "meta_rev_at_epoch": 65726,
        "meta_bstar": 0.00015481,
        "meta_mean_motion_dot": 4.46e-06,
        "meta_mean_motion_ddot": 0,
        "tle_line1": "1 35284U 93036AJN 25360.66037852  .00000446  00000+0  15481-3 0  9991",
        "tle_line2": "2 35284  74.0481 238.7931 0017235 313.4165  77.5805 14.38332344657265"
      },
      "geometry": {
        "type": "Point",
        "coordinates": [
          37.85455466805777,
          50.10632292540833
        ]
      }
    },
    {
      "type": "Feature",
      "properties": {
        "norad_id": 35287,
        "name": "COSMOS 2251 DEB",
        "group": "cosmos-2251-debris",
        "lat": -20.935606242110044,
        "lon": 75.91795422079339,
        "alt_km": 785.5045391941776,
        "timestamp": "2025-12-27T03:58:44.542719+00:00",
        "meta_object_name": "COSMOS 2251 DEB",
        "meta_object_id": "1993-036AJR",
        "meta_epoch": "2025-12-26T11:11:15.829152",
        "meta_mean_motion": 14.36387455,
        "meta_eccentricity": 0.0018158,
        "meta_inclination": 74.0297,
        "meta_ra_of_asc_node": 250.9133,
        "meta_arg_of_pericenter": 344.6887,
        "meta_mean_anomaly": 200.7795,
        "meta_ephemeris_type": 0,
        "meta_classification_type": "U",
        "meta_norad_cat_id": 35287,
        "meta_element_set_no": 999,
        "meta_rev_at_epoch": 87089,
        "meta_bstar": 0.00012553,
        "meta_mean_motion_dot": 3.42e-06,
        "meta_mean_motion_ddot": 0,
        "tle_line1": "1 35287U 93036AJR 25360.46615543  .00000342  00000+0  12553-3 0  9993",
        "tle_line2": "2 35287  74.0297 250.9133 0018158 344.6887 200.7795 14.36387455870890"
      },
      "geometry": {
        "type": "Point",
        "coordinates": [
          75.91795422079339,
          -20.935606242110044
        ]
      }
    },
    {
      "type": "Feature",
      "properties": {
        "norad_id": 35288,
        "name": "COSMOS 2251 DEB",
        "group": "cosmos-2251-debris",
        "lat": 60.30640951057129,
        "lon": 17.57637105580794,
        "alt_km": 693.5643957597313,
        "timestamp": "2025-12-27T03:58:44.542728+00:00",
        "meta_object_name": "COSMOS 2251 DEB",
        "meta_object_id": "1993-036AJS",
        "meta_epoch": "2025-12-23T06:18:10.717920",
        "meta_mean_motion": 14.65565205,
        "meta_eccentricity": 0.0039069,
        "meta_inclination": 73.9499,
        "meta_ra_of_asc_node": 354.8064,
        "meta_arg_of_pericenter": 226.8245,
        "meta_mean_anomaly": 132.9657,
        "meta_ephemeris_type": 0,
        "meta_classification_type": "U",
        "meta_norad_cat_id": 35288,
        "meta_element_set_no": 999,
        "meta_rev_at_epoch": 88032,
        "meta_bstar": 0.0011220049,
        "meta_mean_motion_dot": 6.131e-05,
        "meta_mean_motion_ddot": 0,
        "tle_line1": "1 35288U 93036AJS 25357.26262405  .00006131  00000+0  11220-2 0  9994",
        "tle_line2": "2 35288  73.9499 354.8064 0039069 226.8245 132.9657 14.65565205880328"
      },
      "geometry": {
        "type": "Point",
        "coordinates": [
          17.57637105580794,
          60.30640951057129
        ]
      }
    },
    {
      "type": "Feature",
      "properties": {
        "norad_id": 35290,
        "name": "COSMOS 2251 DEB",
        "group": "cosmos-2251-debris",
        "lat": 41.888873129845024,
        "lon": 45.84895440582477,
        "alt_km": 623.833982244827,
        "timestamp": "2025-12-27T03:58:44.542737+00:00",
        "meta_object_name": "COSMOS 2251 DEB",
        "meta_object_id": "1993-036AJU",
        "meta_epoch": "2025-12-24T09:17:55.218624",
        "meta_mean_motion": 14.80672096,
        "meta_eccentricity": 0.00012182,
        "meta_inclination": 74.005,
        "meta_ra_of_asc_node": 36.4274,
        "meta_arg_of_pericenter": 184.9871,
        "meta_mean_anomaly": 175.1294,
        "meta_ephemeris_type": 0,
        "meta_classification_type": "U",
        "meta_norad_cat_id": 35290,
        "meta_element_set_no": 999,
        "meta_rev_at_epoch": 88130,
        "meta_bstar": 0.0018442179,
        "meta_mean_motion_dot": 0.00014174,
        "meta_mean_motion_ddot": 0,
        "tle_line1": "1 35290U 93036AJU 25358.38744466  .00014174  00000+0  18442-2 0  9992",
        "tle_line2": "2 35290  74.0050  36.4274 0001218 184.9871 175.1294 14.80672096881305"
      },
      "geometry": {
        "type": "Point",
        "coordinates": [
          45.84895440582477,
          41.888873129845024
        ]
      }
    },
    {
      "type": "Feature",
      "properties": {
        "norad_id": 35432,
        "name": "COSMOS 2251 DEB",
        "group": "cosmos-2251-debris",
        "lat": 6.583424550032627,
        "lon": -13.00977964906331,
        "alt_km": 488.2172774595865,
        "timestamp": "2025-12-27T03:58:44.542746+00:00",
        "meta_object_name": "COSMOS 2251 DEB",
        "meta_object_id": "1993-036AKA",
        "meta_epoch": "2025-12-26T16:55:32.526048",
        "meta_mean_motion": 15.24667745,
        "meta_eccentricity": 0.0012317,
        "meta_inclination": 74.0222,
        "meta_ra_of_asc_node": 346.0679,
        "meta_arg_of_pericenter": 316.4683,
        "meta_mean_anomaly": 43.5544,
        "meta_ephemeris_type": 0,
        "meta_classification_type": "U",
        "meta_norad_cat_id": 35432,
        "meta_element_set_no": 999,
        "meta_rev_at_epoch": 87716,
        "meta_bstar": 0.0017906,
        "meta_mean_motion_dot": 0.00044578,
        "meta_mean_motion_ddot": 0,
        "tle_line1": "1 35432U 93036AKA 25360.70523757  .00044578  00000+0  17906-2 0  9992",
        "tle_line2": "2 35432  74.0222 346.0679 0012317 316.4683  43.5544 15.24667745877167"
      },
      "geometry": {
        "type": "Point",
        "coordinates": [
          -13.00977964906331,
          6.583424550032627
        ]
      }
    },
    {
      "type": "Feature",
      "properties": {
        "norad_id": 35433,
        "name": "COSMOS 2251 DEB",
        "group": "cosmos-2251-debris",
        "lat": -52.54582841292777,
        "lon": 153.9691310404755,
        "alt_km": 793.5302357084083,
        "timestamp": "2025-12-27T03:58:44.542755+00:00",
        "meta_object_name": "COSMOS 2251 DEB",
        "meta_object_id": "1993-036AKB",
        "meta_epoch": "2025-12-10T18:27:52.031808",
        "meta_mean_motion": 14.34742553,
        "meta_eccentricity": 0.00254013,
        "meta_inclination": 74.0339,
        "meta_ra_of_asc_node": 342.0559,
        "meta_arg_of_pericenter": 37.4572,
        "meta_mean_anomaly": 142.4072,
        "meta_ephemeris_type": 0,
        "meta_classification_type": "U",
        "meta_norad_cat_id": 35433,
        "meta_element_set_no": 999,
        "meta_rev_at_epoch": 86552,
        "meta_bstar": 0.00041847558,
        "meta_mean_motion_dot": 1.164e-05,
        "meta_mean_motion_ddot": 0,
        "tle_line1": "1 35433U 93036AKB 25344.76935222  .00001164  00000+0  41848-3 0  9992",
        "tle_line2": "2 35433  74.0339 342.0559 0025401  37.4572 142.4072 14.34742553865528"
      },
      "geometry": {
        "type": "Point",
        "coordinates": [
          153.9691310404755,
          -52.54582841292777
        ]
      }
    },
    {
      "type": "Feature",
      "properties": {
        "norad_id": 35434,
        "name": "COSMOS 2251 DEB",
        "group": "cosmos-2251-debris",
        "lat": 39.441285696451835,
        "lon": -158.79440271386974,
        "alt_km": 854.6334369296228,
        "timestamp": "2025-12-27T03:58:44.542764+00:00",
        "meta_object_name": "COSMOS 2251 DEB",
        "meta_object_id": "1993-036AKC",
        "meta_epoch": "2025-12-23T05:28:40.876896",
        "meta_mean_motion": 14.25716012,
        "meta_eccentricity": 0.00872798,
        "meta_inclination": 74.0389,
        "meta_ra_of_asc_node": 194.6941,
        "meta_arg_of_pericenter": 263.2384,
        "meta_mean_anomaly": 95.8825,
        "meta_ephemeris_type": 0,
        "meta_classification_type": "U",
        "meta_norad_cat_id": 35434,
        "meta_element_set_no": 999,
        "meta_rev_at_epoch": 86267,
        "meta_bstar": 0.00051853095,
        "meta_mean_motion_dot": 1.255e-05,
        "meta_mean_motion_ddot": 0,
        "tle_line1": "1 35434U 93036AKC 25357.22825089  .00001255  00000+0  51853-3 0  9995",
        "tle_line2": "2 35434  74.0389 194.6941 0087279 263.2384  95.8825 14.25716012862672"
      },
      "geometry": {
        "type": "Point",
        "coordinates": [
          -158.79440271386974,
          39.441285696451835
        ]
      }
    }
  ]
}